{
  "type": "FeatureCollection",
  "features": [
    {
      "type": "Feature",
      "properties": {
        "norad_id": 66870,
        "name": "STARLINK-36114",
        "group": "last-30-days",
        "lat": 30.28325824300911,
        "lon": -166.93194708688054,
        "alt_km": 388.8478835874621,
        "timestamp": "2025-12-24T07:45:04.933376+00:00",
        "meta_object_name": "STARLINK-36114",
        "meta_object_id": "2025-281Y",
        "meta_epoch": "2025-12-23T22:00:01.999584",
        "meta_mean_motion": 15.60039218,
        "meta_eccentricity": 0.00017234,
        "meta_inclination": 43.0002,
        "meta_ra_of_asc_node": 54.2805,
        "meta_arg_of_pericenter": 272.4189,
        "meta_mean_anomaly": 96.634,
        "meta_ephemeris_type": 0,
        "meta_classification_type": "U",
        "meta_norad_cat_id": 66870,
        "meta_element_set_no": 999,
        "meta_rev_at_epoch": 308,
        "meta_bstar": -0.026971221,
        "meta_mean_motion_dot": -0.01973608,
        "meta_mean_motion_ddot": 0,
        "tle_line1": "1 66870U 25281Y   25357.91668981 -.01973608  00000+0 -26971-1 0  9996",
        "tle_line2": "2 66870  43.0002  54.2805 0001723 272.4189  96.6340 15.60039218  3082"
      },
      "geometry": {
        "type": "Point",
        "coordinates": [
          -166.93194708688054,
          30.28325824300911
        ]
      }
    },
    {
      "type": "Feature",
      "properties": {
        "norad_id": 66871,
        "name": "STARLINK-36095",
        "group": "last-30-days",
        "lat": 29.25076149865721,
        "lon": -165.07390043560102,
        "alt_km": 388.8863863783781,
        "timestamp": "2025-12-24T07:45:04.933388+00:00",
        "meta_object_name": "STARLINK-36095",
        "meta_object_id": "2025-281Z",
        "meta_epoch": "2025-12-23T22:00:01.999584",
        "meta_mean_motion": 15.60043234,
        "meta_eccentricity": 0.00016393,
        "meta_inclination": 43.0003,
        "meta_ra_of_asc_node": 54.2754,
        "meta_arg_of_pericenter": 269.3224,
        "meta_mean_anomaly": 101.645,
        "meta_ephemeris_type": 0,
        "meta_classification_type": "U",
        "meta_norad_cat_id": 66871,
        "meta_element_set_no": 999,
        "meta_rev_at_epoch": 322,
        "meta_bstar": -0.027024295,
        "meta_mean_motion_dot": -0.01977224,
        "meta_mean_motion_ddot": 0,
        "tle_line1": "1 66871U 25281Z   25357.91668981 -.01977224  00000+0 -27024-1 0  9995",
        "tle_line2": "2 66871  43.0003  54.2754 0001639 269.3224 101.6450 15.60043234  3226"
      },
      "geometry": {
        "type": "Point",
        "coordinates": [
          -165.07390043560102,
          29.25076149865721
        ]
      }
    },
    {
      "type": "Feature",
      "properties": {
        "norad_id": 66872,
        "name": "STARLINK-36082",
        "group": "last-30-days",
        "lat": 28.192801633999384,
        "lon": -163.2530237356483,
        "alt_km": 389.1053477924779,
        "timestamp": "2025-12-24T07:45:04.933398+00:00",
        "meta_object_name": "STARLINK-36082",
        "meta_object_id": "2025-281AA",
        "meta_epoch": "2025-12-23T22:00:01.999584",
        "meta_mean_motion": 15.60040729,
        "meta_eccentricity": 0.00015813,
        "meta_inclination": 43.0005,
        "meta_ra_of_asc_node": 54.2704,
        "meta_arg_of_pericenter": 275.5815,
        "meta_mean_anomaly": 97.3034,
        "meta_ephemeris_type": 0,
        "meta_classification_type": "U",
        "meta_norad_cat_id": 66872,
        "meta_element_set_no": 999,
        "meta_rev_at_epoch": 308,
        "meta_bstar": -0.026998597,
        "meta_mean_motion_dot": -0.01975363,
        "meta_mean_motion_ddot": 0,
        "tle_line1": "1 66872U 25281AA  25357.91668981 -.01975363  00000+0 -26999-1 0  9998",
        "tle_line2": "2 66872  43.0005  54.2704 0001581 275.5815  97.3034 15.60040729  3084"
      },
      "geometry": {
        "type": "Point",
        "coordinates": [
          -163.2530237356483,
          28.192801633999384
        ]
      }
    },
    {
      "type": "Feature",
      "properties": {
        "norad_id": 66873,
        "name": "STARLINK-36128",
        "group": "last-30-days",
        "lat": 24.88262429493354,
        "lon": -158.00307580969437,
        "alt_km": 389.5141970863624,
        "timestamp": "2025-12-24T07:45:04.933408+00:00",
        "meta_object_name": "STARLINK-36128",
        "meta_object_id": "2025-281AB",
        "meta_epoch": "2025-12-23T22:00:01.999584",
        "meta_mean_motion": 15.60038611,
        "meta_eccentricity": 0.00017229,
        "meta_inclination": 43.0003,
        "meta_ra_of_asc_node": 54.2549,
        "meta_arg_of_pericenter": 270.6349,
        "meta_mean_anomaly": 108.002,
        "meta_ephemeris_type": 0,
        "meta_classification_type": "U",
        "meta_norad_cat_id": 66873,
        "meta_element_set_no": 999,
        "meta_rev_at_epoch": 322,
        "meta_bstar": -0.02687633,
        "meta_mean_motion_dot": -0.01967469,
        "meta_mean_motion_ddot": 0,
        "tle_line1": "1 66873U 25281AB  25357.91668981 -.01967469  00000+0 -26876-1 0  9991",
        "tle_line2": "2 66873  43.0003  54.2549 0001722 270.6349 108.0020 15.60038611  3223"
      },
      "geometry": {
        "type": "Point",
        "coordinates": [
          -158.00307580969437,
          24.88262429493354
        ]
      }
    },
    {
      "type": "Feature",
      "properties": {
        "norad_id": 66874,
        "name": "STARLINK-36129",
        "group": "last-30-days",
        "lat": 27.11126168503221,
        "lon": -161.4685731187814,
        "alt_km": 389.218606200423,
        "timestamp": "2025-12-24T07:45:04.933420+00:00",
        "meta_object_name": "STARLINK-36129",
        "meta_object_id": "2025-281AC",
        "meta_epoch": "2025-12-23T22:00:01.999584",
        "meta_mean_motion": 15.60040171,
        "meta_eccentricity": 0.00017021,
        "meta_inclination": 43.0006,
        "meta_ra_of_asc_node": 54.2656,
        "meta_arg_of_pericenter": 270.7414,
        "meta_mean_anomaly": 104.0607,
        "meta_ephemeris_type": 0,
        "meta_classification_type": "U",
        "meta_norad_cat_id": 66874,
        "meta_element_set_no": 999,
        "meta_rev_at_epoch": 322,
        "meta_bstar": -0.026925734,
        "meta_mean_motion_dot": -0.01970734,
        "meta_mean_motion_ddot": 0,
        "tle_line1": "1 66874U 25281AC  25357.91668981 -.01970734  00000+0 -26926-1 0  9997",
        "tle_line2": "2 66874  43.0006  54.2656 0001702 270.7414 104.0607 15.60040171  3229"
      },
      "geometry": {
        "type": "Point",
        "coordinates": [
          -161.4685731187814,
          27.11126168503221
        ]
      }
    },
    {
      "type": "Feature",
      "properties": {
        "norad_id": 66875,
        "name": "STARLINK-36053",
        "group": "last-30-days",
        "lat": 23.73791757880196,
        "lon": -156.31690231965422,
        "alt_km": 389.7180045759442,
        "timestamp": "2025-12-24T07:45:04.933431+00:00",
        "meta_object_name": "STARLINK-36053",
        "meta_object_id": "2025-281AD",
        "meta_epoch": "2025-12-23T22:00:01.999584",
        "meta_mean_motion": 15.6003368,
        "meta_eccentricity": 0.00015575,
        "meta_inclination": 43.0004,
        "meta_ra_of_asc_node": 54.2496,
        "meta_arg_of_pericenter": 277.6719,
        "meta_mean_anomaly": 102.8835,
        "meta_ephemeris_type": 0,
        "meta_classification_type": "U",
        "meta_norad_cat_id": 66875,
        "meta_element_set_no": 999,
        "meta_rev_at_epoch": 322,
        "meta_bstar": -0.026798983,
        "meta_mean_motion_dot": -0.01962044,
        "meta_mean_motion_ddot": 0,
        "tle_line1": "1 66875U 25281AD  25357.91668981 -.01962044  00000+0 -26799-1 0  9991",
        "tle_line2": "2 66875  43.0004  54.2496 0001557 277.6719 102.8835 15.60033680  3228"
      },
      "geometry": {
        "type": "Point",
        "coordinates": [
          -156.31690231965422,
          23.73791757880196
        ]
      }
    },
    {
      "type": "Feature",
      "properties": {
        "norad_id": 66876,
        "name": "STARLINK-35702",
        "group": "last-30-days",
        "lat": 26.006532475950085,
        "lon": -159.71794872506123,
        "alt_km": 389.42335549467043,
        "timestamp": "2025-12-24T07:45:04.933440+00:00",
        "meta_object_name": "STARLINK-35702",
        "meta_object_id": "2025-281AE",
        "meta_epoch": "2025-12-23T22:00:01.999584",
        "meta_mean_motion": 15.60035033,
        "meta_eccentricity": 0.0001602,
        "meta_inclination": 43.0006,
        "meta_ra_of_asc_node": 54.2602,
        "meta_arg_of_pericenter": 277.2156,
        "meta_mean_anomaly": 99.5044,
        "meta_ephemeris_type": 0,
        "meta_classification_type": "U",
        "meta_norad_cat_id": 66876,
        "meta_element_set_no": 999,
        "meta_rev_at_epoch": 322,
        "meta_bstar": -0.026813376,
        "meta_mean_motion_dot": -0.01963093,
        "meta_mean_motion_ddot": 0,
        "tle_line1": "1 66876U 25281AE  25357.91668981 -.01963093  00000+0 -26813-1 0  9994",
        "tle_line2": "2 66876  43.0006  54.2602 0001602 277.2156  99.5044 15.60035033  3220"
      },
      "geometry": {
        "type": "Point",
        "coordinates": [
          -159.71794872506123,
          26.006532475950085
        ]
      }
    }
  ]
}